ONEWEB-0202             
1 48224U 21031Q   24063.12661747 -.00000091  00000+0 -28089-3 0  9997
2 48224  87.8904  96.1172 0001131  81.5986 278.5271 13.14501248138538
ONEWEB-0204             
1 48225U 21031R   24063.16070113  .00000204  00000+0  51635-3 0  9990
2 48225  87.8905  96.1226 0002310 100.7513 259.3877 13.14503827138433
ONEWEB-0205             
1 48226U 21031S   24062.60330670  .00000088  00000+0  20179-3 0  9995
2 48226  87.8904  96.2050 0001771 101.5411 258.5918 13.14504037138368
ONEWEB-0206             
1 48227U 21031T   24063.10916455 -.00000176  00000+0 -51000-3 0  9990
2 48227  87.8902  96.0958 0001865 103.2847 256.8491 13.14503662138391
ONEWEB-0182             
1 48228U 21031U   24062.64771171 -.00000159  00000+0 -46357-3 0  9993
2 48228  87.8907  96.2107 0002111  98.0152 262.1217 13.14501374138530
ONEWEB-0186             
1 48229U 21031V   24062.58268236 -.00000238  00000+0 -67734-3 0  9990
2 48229  87.8906  96.1882 0001821  94.1453 265.9885 13.14504270138470
ONEWEB-0181             
1 48230U 21031W   24062.63661138  .00000014  00000+0  36175-5 0  9993
2 48230  87.8908  96.2465 0001742  92.5057 267.6272 13.14501310138343
ONEWEB-0188             
1 48231U 21031X   24062.59854503 -.00000003  00000+0 -42545-4 0  9996
2 48231  87.8904  96.2511 0001900  97.4731 262.6614 13.14504047138234
